{"type": "FeatureCollection", "skjematisk": true, "properties": {"merknad": "Skjematisk kart – ikke ekte grunnkretsgrenser. Plassering omtrentlig."}, "features": [{"type": "Feature", "properties": {"id": "3201-baerum", "navn": "Bærum"}, "geometry": {"type": "Polygon", "coordinates": [[[6, 30], [30, 30], [30, 52], [6, 52], [6, 30]]]}}, {"type": "Feature", "properties": {"id": "0301-hoy", "navn": "Indre vest"}, "geometry": {"type": "Polygon", "coordinates": [[[40, 34], [58, 34], [58, 52], [40, 52], [40, 34]]]}}, {"type": "Feature", "properties": {"id": "0301-mid", "navn": "Indre øst"}, "geometry": {"type": "Polygon", "coordinates": [[[60, 34], [78, 34], [78, 52], [60, 52], [60, 34]]]}}, {"type": "Feature", "properties": {"id": "0301-lav", "navn": "Groruddalen"}, "geometry": {"type": "Polygon", "coordinates": [[[64, 10], [86, 10], [86, 30], [64, 30], [64, 10]]]}}]}